{"type": "FeatureCollection", "features": [ {"type": "Feature", "properties": {"norad_id": 35885, "name": "COSMOS 2251 DEB", "group": "cosmos-2251-debris", "lat": -70.28423145166657, "lon": -110.59236134630464, "alt_km": 777.1473571248953, "timestamp": "2025-12-08T13:49:32.191076+00:00", "meta": {"OBJECT_NAME": "COSMOS 2251 DEB", "OBJECT_ID": "1993-036ATY", "EPOCH": "2025-12-06T15:25:19.901280", "MEAN_MOTION": 14.37501399, "ECCENTRICITY": 0.0022973, "INCLINATION": 74.0277, "RA_OF_ASC_NODE": 306.0211, "ARG_OF_PERICENTER": 28.0952, "MEAN_ANOMALY": 332.1436, "EPHEMERIS_TYPE": 0, "CLASSIFICATION_TYPE": "U", "NORAD_CAT_ID": 35885, "ELEMENT_SET_NO": 999, "REV_AT_EPOCH": 64928, "BSTAR": 0.00059498548, "MEAN_MOTION_DOT": 1.761e-05, "MEAN_MOTION_DDOT": 0}, "tle": {"line1": "1 35885U 93036ATY 25340.64259145  .00001761  00000+0  59499-3 0  9993", "line2": "2 35885  74.0277 306.0211 0022973  28.0952 332.1436 14.37501399649283"}}, "geometry": {"type": "Point", "coordinates": [-110.59236134630464, -70.28423145166657]}}, {"type": "Feature", "properties": {"norad_id": 35888, "name": "COSMOS 2251 DEB", "group": "cosmos-2251-debris", "lat": -68.34921601297482, "lon": -41.56210804253661, "alt_km": 734.2073031758428, "timestamp": "2025-12-08T13:49:32.191087+00:00", "meta": {"OBJECT_NAME": "COSMOS 2251 DEB", "OBJECT_ID": "1993-036AUB", "EPOCH": "2025-12-06T19:21:56.006208", "MEAN_MOTION": 14.58288117, "ECCENTRICITY": 0.00484531, "INCLINATION": 74.0336, "RA_OF_ASC_NODE": 7.9609, "ARG_OF_PERICENTER": 141.8961, "MEAN_ANOMALY": 218.5647, "EPHEMERIS_TYPE": 0, "CLASSIFICATION_TYPE": "U", "NORAD_CAT_ID": 35888, "ELEMENT_SET_NO": 999, "REV_AT_EPOCH": 86187, "BSTAR": 0.00070859263, "MEAN_MOTION_DOT": 3.301e-05, "MEAN_MOTION_DDOT": 0}, "tle": {"line1": "1 35888U 93036AUB 25340.80689822  .00003301  00000+0  70859-3 0  9998", "line2": "2 35888  74.0336   7.9609 0048453 141.8961 218.5647 14.58288117861870"}}, "geometry": {"type": "Point", "coordinates": [-41.56210804253661, -68.34921601297482]}}, {"type": "Feature", "properties": {"norad_id": 35890, "name": "COSMOS 2251 DEB", "group": "cosmos-2251-debris", "lat": -19.85478370027566, "lon": -115.30968602208698, "alt_km": 675.8958110726808, "timestamp": "2025-12-08T13:49:32.191097+00:00", "meta": {"OBJECT_NAME": "COSMOS 2251 DEB", "OBJECT_ID": "1993-036AUD", "EPOCH": "2025-12-08T00:44:22.816032", "MEAN_MOTION": 14.57358592, "ECCENTRICITY": 0.00535586, "INCLINATION": 73.9367, "RA_OF_ASC_NODE": 251.7044, "ARG_OF_PERICENTER": 16.9796, "MEAN_ANOMALY": 343.3143, "EPHEMERIS_TYPE": 0, "CLASSIFICATION_TYPE": "U", "NORAD_CAT_ID": 35890, "ELEMENT_SET_NO": 999, "REV_AT_EPOCH": 65082, "BSTAR": 0.0025122755, "MEAN_MOTION_DOT": 0.00011598, "MEAN_MOTION_DDOT": 0}, "tle": {"line1": "1 35890U 93036AUD 25342.03081963  .00011598  00000+0  25123-2 0  9990", "line2": "2 35890  73.9367 251.7044 0053558  16.9796 343.3143 14.57358592650820"}}, "geometry": {"type": "Point", "coordinates": [-115.30968602208698, -19.85478370027566]}}, {"type": "Feature", "properties": {"norad_id": 35891, "name": "COSMOS 2251 DEB", "group": "cosmos-2251-debris", "lat": -3.159976032991346, "lon": -76.28718456382376, "alt_km": 450.8484734502035, "timestamp": "2025-12-08T13:49:32.191108+00:00", "meta": {"OBJECT_NAME": "COSMOS 2251 DEB", "OBJECT_ID": "1993-036AUE", "EPOCH": "2025-12-07T15:05:39.688512", "MEAN_MOTION": 15.32671371, "ECCENTRICITY": 0.00448916, "INCLINATION": 73.9888, "RA_OF_ASC_NODE": 104.8337, "ARG_OF_PERICENTER": 235.5945, "MEAN_ANOMALY": 124.1012, "EPHEMERIS_TYPE": 0, "CLASSIFICATION_TYPE": "U", "NORAD_CAT_ID": 35891, "ELEMENT_SET_NO": 999, "REV_AT_EPOCH": 67142, "BSTAR": 0.0020729594, "MEAN_MOTION_DOT": 0.00068094, "MEAN_MOTION_DDOT": 0}, "tle": {"line1": "1 35891U 93036AUE 25341.62893158  .00068094  00000+0  20730-2 0  9994", "line2": "2 35891  73.9888 104.8337 0044891 235.5945 124.1012 15.32671371671423"}}, "geometry": {"type": "Point", "coordinates": [-76.28718456382376, -3.159976032991346]}}, {"type": "Feature", "properties": {"norad_id": 35895, "name": "COSMOS 2251 DEB", "group": "cosmos-2251-debris", "lat": -49.10152600187235, "lon": -24.39265574191128, "alt_km": 1013.7221141346981, "timestamp": "2025-12-08T13:49:32.191119+00:00", "meta": {"OBJECT_NAME": "COSMOS 2251 DEB", "OBJECT_ID": "1993-036AUJ", "EPOCH": "2025-12-07T07:14:26.762496", "MEAN_MOTION": 14.01487367, "ECCENTRICITY": 0.0198387, "INCLINATION": 74.0487, "RA_OF_ASC_NODE": 357.0973, "ARG_OF_PERICENTER": 96.746, "MEAN_ANOMALY": 265.6293, "EPHEMERIS_TYPE": 0, "CLASSIFICATION_TYPE": "U", "NORAD_CAT_ID": 35895, "ELEMENT_SET_NO": 999, "REV_AT_EPOCH": 58936, "BSTAR": 0.0023068706, "MEAN_MOTION_DOT": 4.118e-05, "MEAN_MOTION_DDOT": 0}, "tle": {"line1": "1 35895U 93036AUJ 25341.30169864  .00004118  00000+0  23069-2 0  9998", "line2": "2 35895  74.0487 357.0973 0198387  96.7460 265.6293 14.01487367589369"}}, "geometry": {"type": "Point", "coordinates": [-24.39265574191128, -49.10152600187235]}}, {"type": "Feature", "properties": {"norad_id": 35898, "name": "COSMOS 2251 DEB", "group": "cosmos-2251-debris", "lat": -38.37873561943995, "lon": 139.01338257751084, "alt_km": 624.5808158441187, "timestamp": "2025-12-08T13:49:32.191129+00:00", "meta": {"OBJECT_NAME": "COSMOS 2251 DEB", "OBJECT_ID": "1993-036AUM", "EPOCH": "2025-12-07T04:47:26.153664", "MEAN_MOTION": 14.94573196, "ECCENTRICITY": 0.0079228, "INCLINATION": 73.9914, "RA_OF_ASC_NODE": 308.651, "ARG_OF_PERICENTER": 93.6703, "MEAN_ANOMALY": 282.8224, "EPHEMERIS_TYPE": 0, "CLASSIFICATION_TYPE": "U", "NORAD_CAT_ID": 35898, "ELEMENT_SET_NO": 999, "REV_AT_EPOCH": 66727, "BSTAR": 0.0011539651, "MEAN_MOTION_DOT": 0.00013273, "MEAN_MOTION_DDOT": 0}, "tle": {"line1": "1 35898U 93036AUM 25341.19960826  .00013273  00000+0  11540-2 0  9998", "line2": "2 35898  73.9914 308.6510 0079228  93.6703 282.8224 14.94573196667272"}}, "geometry": {"type": "Point", "coordinates": [139.01338257751084, -38.37873561943995]}}, {"type": "Feature", "properties": {"norad_id": 35901, "name": "COSMOS 2251 DEB", "group": "cosmos-2251-debris", "lat": 39.644463755339544, "lon": 45.17650475637975, "alt_km": 540.2993452622541, "timestamp": "2025-12-08T13:49:32.191140+00:00", "meta": {"OBJECT_NAME": "COSMOS 2251 DEB", "OBJECT_ID": "1993-036AUQ", "EPOCH": "2025-12-07T10:36:21.692736", "MEAN_MOTION": 15.06319673, "ECCENTRICITY": 0.00066034, "INCLINATION": 74.0121, "RA_OF_ASC_NODE": 33.7639, "ARG_OF_PERICENTER": 0.5644, "MEAN_ANOMALY": 13.1472, "EPHEMERIS_TYPE": 0, "CLASSIFICATION_TYPE": "U", "NORAD_CAT_ID": 35901, "ELEMENT_SET_NO": 999, "REV_AT_EPOCH": 86047, "BSTAR": 0.0047775116, "MEAN_MOTION_DOT": 0.0007096, "MEAN_MOTION_DDOT": 0}, "tle": {"line1": "1 35901U 93036AUQ 25341.44191774  .00070960  00000+0  47775-2 0  9994", "line2": "2 35901  74.0121  33.7639 0006603   0.5644  13.1472 15.06319673860474"}}, "geometry": {"type": "Point", "coordinates": [45.17650475637975, 39.644463755339544]}}, {"type": "Feature", "properties": {"norad_id": 35902, "name": "COSMOS 2251 DEB", "group": "cosmos-2251-debris", "lat": 73.26747927667867, "lon": -45.02345752121895, "alt_km": 790.8735633278229, "timestamp": "2025-12-08T13:49:32.191150+00:00", "meta": {"OBJECT_NAME": "COSMOS 2251 DEB", "OBJECT_ID": "1993-036AUR", "EPOCH": "2025-12-07T23:58:19.658496", "MEAN_MOTION": 14.26862668, "ECCENTRICITY": 0.01019224, "INCLINATION": 73.9832, "RA_OF_ASC_NODE": 243.186, "ARG_OF_PERICENTER": 358.8404, "MEAN_ANOMALY": 1.2491, "EPHEMERIS_TYPE": 0, "CLASSIFICATION_TYPE": "U", "NORAD_CAT_ID": 35902, "ELEMENT_SET_NO": 999, "REV_AT_EPOCH": 61062, "BSTAR": 0.0016367935, "MEAN_MOTION_DOT": 4.172e-05, "MEAN_MOTION_DDOT": 0}, "tle": {"line1": "1 35902U 93036AUR 25341.99883864  .00004172  00000+0  16368-2 0  9999", "line2": "2 35902  73.9832 243.1860 0101922 358.8404   1.2491 14.26862668610625"}}, "geometry": {"type": "Point", "coordinates": [-45.02345752121895, 73.26747927667867]}}, {"type": "Feature", "properties": {"norad_id": 35905, "name": "COSMOS 2251 DEB", "group": "cosmos-2251-debris", "lat": 36.5032772496696, "lon": -128.50048365983417, "alt_km": 575.618772534578, "timestamp": "2025-12-08T13:49:32.191161+00:00", "meta": {"OBJECT_NAME": "COSMOS 2251 DEB", "OBJECT_ID": "1993-036AUU", "EPOCH": "2025-12-07T08:49:24.431232", "MEAN_MOTION": 14.98911662, "ECCENTRICITY": 0.00909894, "INCLINATION": 74.0317, "RA_OF_ASC_NODE": 221.7171, "ARG_OF_PERICENTER": 303.0017, "MEAN_ANOMALY": 56.2448, "EPHEMERIS_TYPE": 0, "CLASSIFICATION_TYPE": "U", "NORAD_CAT_ID": 35905, "ELEMENT_SET_NO": 999, "REV_AT_EPOCH": 88502, "BSTAR": 0.00087159571, "MEAN_MOTION_DOT": 0.00011465, "MEAN_MOTION_DDOT": 0}, "tle": {"line1": "1 35905U 93036AUU 25341.36764388  .00011465  00000+0  87160-3 0  9994", "line2": "2 35905  74.0317 221.7171 0090989 303.0017  56.2448 14.98911662885025"}}, "geometry": {"type": "Point", "coordinates": [-128.50048365983417, 36.5032772496696]}}, {"type": "Feature", "properties": {"norad_id": 35959, "name": "COSMOS 2251 DEB", "group": "cosmos-2251-debris", "lat": 56.541980029064405, "lon": -14.637644864958178, "alt_km": 757.6941900590873, "timestamp": "2025-12-08T13:49:32.191172+00:00", "meta": {"OBJECT_NAME": "COSMOS 2251 DEB", "OBJECT_ID": "1993-036AUZ", "EPOCH": "2025-12-08T05:10:34.514400", "MEAN_MOTION": 14.34131118, "ECCENTRICITY": 0.00213794, "INCLINATION": 74.0321, "RA_OF_ASC_NODE": 320.3461, "ARG_OF_PERICENTER": 42.2053, "MEAN_ANOMALY": 318.074, "EPHEMERIS_TYPE": 0, "CLASSIFICATION_TYPE": "U", "NORAD_CAT_ID": 35959, "ELEMENT_SET_NO": 999, "REV_AT_EPOCH": 84863, "BSTAR": 0.00023897731, "MEAN_MOTION_DOT": 6.45e-06, "MEAN_MOTION_DDOT": 0}, "tle": {"line1": "1 35959U 93036AUZ 25342.21567725  .00000645  00000+0  23898-3 0  9990", "line2": "2 35959  74.0321 320.3461 0021379  42.2053 318.0740 14.34131118848636"}}, "geometry": {"type": "Point", "coordinates": [-14.637644864958178, 56.541980029064405]}}]}